HODOYOSHI-4             
1 40011U 14033B   26160.50314951  .00000430  00000+0  52195-4 0  9992
2 40011  97.5458 345.6968 0023156 334.8485  25.1603 14.88109026647664
DEIMOS-2                
1 40013U 14033D   26160.54643531  .00001999  00000+0  19406-3 0  9995
2 40013  97.5841  35.3034 0002022  61.0326 299.1097 14.93709135636583
HODOYOSHI-3             
1 40015U 14033F   26160.43815516  .00000989  00000+0  11986-3 0  9992
2 40015  97.6412 323.7911 0033381  22.6574 337.6106 14.85372587646474
SPOT 7                  
1 40053U 14034A   26160.51079025  .00000400  00000+0  90910-4 0  9994
2 40053  98.0628 223.2001 0001167  84.8562 275.2772 14.60952136636010
SKYSAT-B                
1 40072U 14037D   26160.39205674  .00001229  00000+0  14064-3 0  9990
2 40072  98.3834 118.9129 0004495 314.1335  45.9510 14.88007514644807
WORLDVIEW-3 (WV-3)      
1 40115U 14048A   26160.48597672  .00000752  00000+0  94469-4 0  9990
2 40115  97.8566 235.4251 0001577  37.6574 322.4751 14.85009417640764
GAOFEN-2                
1 40118U 14049A   26160.54118468  .00000748  00000+0  10377-3 0  9993
2 40118  98.0109 224.7556 0005882 257.4829 102.5725 14.80891477638103
YAOGAN-21               
1 40143U 14053A   26160.49215073  .00008664  00000+0  33641-3 0  9994
2 40143  97.1485 201.0591 0009857 115.3321 244.8940 15.26263537653781
YAOGAN-22               
1 40275U 14063A   26160.35242925 -.00000018  00000+0  75788-4 0  9997
2 40275 100.7714 311.4959 0006163 203.0918 156.9916 13.15531008558788
ASNARO                  
1 40298U 14070A   26160.51970608  .00007558  00000+0  36081-3 0  9991
2 40298  97.3451 236.8423 0004794 188.7988 171.3163 15.19322362642845
YAOGAN-24               
1 40310U 14072A   26160.55834955  .00000901  00000+0  13777-3 0  9998
2 40310  98.1478 297.8324 0012655 290.7930  69.1923 14.76214515622591
CBERS 4                 
1 40336U 14079A   26160.50939686  .00000178  00000+0  76633-4 0  9992
2 40336  98.3533 217.5818 0002008  71.2323 288.9081 14.35507513602850
YAOGAN-26               
1 40362U 14088A   26160.50185421  .00022399  00000+0  44376-3 0  9998
2 40362  97.0646 160.8925 0006611  84.4149 275.7855 15.47042860636511
SMAP                    
1 40376U 15003A   26160.49010196  .00000408  00000+0  87994-4 0  9996
2 40376  98.1276 167.6937 0001277  93.1257 267.0091 14.63359858606490
KOMPSAT-3A              
1 40536U 15014A   26160.51386743  .00022151  00000+0  32552-3 0  9991
2 40536  97.6886 151.3169 0055889 202.3371 157.5447 15.53642404620626
SENTINEL-2A             
1 40697U 15028A   26160.52237212  .00000249  00000+0  11155-3 0  9991
2 40697  98.5679 235.4827 0001080  86.7113 273.4194 14.30822398572631
GAOFEN-8                
1 40701U 15030A   26160.51402162  .00016365  00000+0  34059-3 0  9991
2 40701  97.6918 353.4253 0008186 214.3178 145.7542 15.45670710610267
CARBONITE 1 (CBNT-1)    
1 40718U 15032D   26160.49365734  .00000858  00000+0  11026-3 0  9990
2 40718  97.6511 338.8829 0013716 325.2750  34.7568 14.83562119588200
YAOGAN-27               
1 40878U 15040A   26160.50249793 -.00000293  00000+0 -65896-3 0  9993
2 40878 100.1153 147.2188 0007498 229.8181 130.2277 13.16068019516650
GAOFEN-9 01             
1 40894U 15047A   26160.50502471  .00000859  00000+0  11156-3 0  9999
2 40894  97.6278 196.5487 0027818 162.2819 197.9372 14.82868907579058
YAOGAN-28               
1 41026U 15064A   26160.52657363  .00007043  00000+0  26556-3 0  9991
2 41026  97.3062 298.9457 0009941 210.9712 149.0942 15.27321122589514
YAOGAN-29               
1 41038U 15069A   26160.48643597  .00000171  00000+0  27678-4 0  9990
2 41038  98.0034 189.1072 0002886  66.1758 293.9757 14.83077952569487
KENT RIDGE 1            
1 41167U 15077B   26160.10858326  .00003643  00000+0  11854-3 0  9994
2 41167  14.9807 326.0677 0008247 124.4283 235.6820 15.23082353579869
GAOFEN-4                
1 41194U 15083A   26159.59771124 -.00000319  00000+0  00000+0 0  9997
2 41194   0.3341  83.8441 0004165 111.8448  22.1741  1.00273550 38442
JASON-3                 
1 41240U 16002A   26160.46865528 -.00000044  00000+0  73604-4 0  9991
2 41240  66.0393 142.0625 0008588 273.0879  86.9157 12.87627814486252
SENTINEL-3A             
1 41335U 16011A   26160.50227897  .00000085  00000+0  53072-4 0  9993
2 41335  98.6249 227.9960 0001353 104.3212 255.8119 14.26737872536963
ZIYUAN 3-02 (ZY 3-02)   
1 41556U 16033A   26160.49472111  .00004745  00000+0  21420-3 0  9999
2 41556  97.3835 236.4161 0011552 320.4908  39.5484 15.21406574556814
CARTOSAT-2C             
1 41599U 16040A   26160.48620896  .00003537  00000+0  17085-3 0  9998
2 41599  97.4489 220.5698 0009961 155.2044 204.9671 15.19257635552543
SKYSAT-C1               
1 41601U 16040C   26160.46507948  .00008387  00000+0  24003-3 0  9998
2 41601  96.9572 192.6041 0004069  73.0207 287.1483 15.36169689556680
LAPAN-A3                
1 41603U 16040E   26160.48923881  .00002990  00000+0  95816-4 0  9995
2 41603  97.1487 156.8882 0011694  50.7737 309.4542 15.33055399553632
GAOFEN-3                
1 41727U 16049A   26160.52176904  .00000254  00000+0  90187-4 0  9999
2 41727  98.4016 168.4237 0001242  98.8070 261.3260 14.42215243517543
