OBJECT_NAME,OBJECT_ID,EPOCH,MEAN_MOTION,ECCENTRICITY,INCLINATION,RA_OF_ASC_NODE,ARG_OF_PERICENTER,MEAN_ANOMALY,EPHEMERIS_TYPE,CLASSIFICATION_TYPE,NORAD_CAT_ID,ELEMENT_SET_NO,REV_AT_EPOCH,BSTAR,MEAN_MOTION_DOT,MEAN_MOTION_DDOT
HODOYOSHI-4,2014-033B,2026-06-09T12:04:32.117664,14.88109026,.0023156,97.5458,345.6968,334.8485,25.1603,0,U,40011,999,64766,.52195E-4,.43E-5,0
DEIMOS-2,2014-033D,2026-06-09T13:06:52.010784,14.93709135,.0002022,97.5841,35.3034,61.0326,299.1097,0,U,40013,999,63658,.19406E-3,.1999E-4,0
HODOYOSHI-3,2014-033F,2026-06-09T10:30:56.605824,14.85372587,.0033381,97.6412,323.7911,22.6574,337.6106,0,U,40015,999,64647,.11986E-3,.989E-5,0
SPOT 7,2014-034A,2026-06-09T12:15:32.277600,14.60952136,.0001167,98.0628,223.2001,84.8562,275.2772,0,U,40053,999,63601,.9091E-4,.4E-5,0
SKYSAT-B,2014-037D,2026-06-09T09:24:33.702336,14.88007514,.0004495,98.3834,118.9129,314.1335,45.9510,0,U,40072,999,64480,.14064E-3,.1229E-4,0
WORLDVIEW-3 (WV-3),2014-048A,2026-06-09T11:39:48.388608,14.85009417,.0001577,97.8566,235.4251,37.6574,322.4751,0,U,40115,999,64076,.94469E-4,.752E-5,0
GAOFEN-2,2014-049A,2026-06-09T12:59:18.356352,14.80891477,.0005882,98.0109,224.7556,257.4829,102.5725,0,U,40118,999,63810,.10377E-3,.748E-5,0
YAOGAN-21,2014-053A,2026-06-09T11:48:41.823072,15.26263537,.0009857,97.1485,201.0591,115.3321,244.8940,0,U,40143,999,65378,.33641E-3,.8664E-4,0
YAOGAN-22,2014-063A,2026-06-09T08:27:29.887200,13.15531008,.0006163,100.7714,311.4959,203.0918,156.9916,0,U,40275,999,55878,.75788E-4,-.18E-6,0
ASNARO,2014-070A,2026-06-09T12:28:22.605312,15.19322362,.0004794,97.3451,236.8423,188.7988,171.3163,0,U,40298,999,64284,.36081E-3,.7558E-4,0
YAOGAN-24,2014-072A,2026-06-09T13:24:01.401120,14.76214515,.0012655,98.1478,297.8324,290.7930,69.1923,0,U,40310,999,62259,.13777E-3,.901E-5,0
CBERS 4,2014-079A,2026-06-09T12:13:31.888704,14.35507513,.0002008,98.3533,217.5818,71.2323,288.9081,0,U,40336,999,60285,.76633E-4,.178E-5,0
YAOGAN-26,2014-088A,2026-06-09T12:02:40.203744,15.47042860,.0006611,97.0646,160.8925,84.4149,275.7855,0,U,40362,999,63651,.44376E-3,.22399E-3,0
SMAP,2015-003A,2026-06-09T11:45:44.809344,14.63359858,.0001277,98.1276,167.6937,93.1257,267.0091,0,U,40376,999,60649,.87994E-4,.408E-5,0
KOMPSAT-3A,2015-014A,2026-06-09T12:19:58.145952,15.53642404,.0055889,97.6886,151.3169,202.3371,157.5447,0,U,40536,999,62062,.32552E-3,.22151E-3,0
SENTINEL-2A,2015-028A,2026-06-09T12:32:12.951168,14.30822398,.000108,98.5679,235.4827,86.7113,273.4194,0,U,40697,999,57263,.11155E-3,.249E-5,0
GAOFEN-8,2015-030A,2026-06-09T12:20:11.467968,15.45670710,.0008186,97.6918,353.4253,214.3178,145.7542,0,U,40701,999,61026,.34059E-3,.16365E-3,0
CARBONITE 1 (CBNT-1),2015-032D,2026-06-09T11:50:51.994176,14.83562119,.0013716,97.6511,338.8829,325.2750,34.7568,0,U,40718,999,58820,.11026E-3,.858E-5,0
YAOGAN-27,2015-040A,2026-06-09T12:03:35.821152,13.16068019,.0007498,100.1153,147.2188,229.8181,130.2277,0,U,40878,999,51665,-.65896E-3,-.293E-5,0
GAOFEN-9 01,2015-047A,2026-06-09T12:07:14.134944,14.82868907,.0027818,97.6278,196.5487,162.2819,197.9372,0,U,40894,999,57905,.11156E-3,.859E-5,0
YAOGAN-28,2015-064A,2026-06-09T12:38:15.961632,15.27321122,.0009941,97.3062,298.9457,210.9712,149.0942,0,U,41026,999,58951,.26556E-3,.7043E-4,0
YAOGAN-29,2015-069A,2026-06-09T11:40:28.067808,14.83077952,.0002886,98.0034,189.1072,66.1758,293.9757,0,U,41038,999,56948,.27678E-4,.171E-5,0
KENT RIDGE 1,2015-077B,2026-06-09T02:36:21.593664,15.23082353,.00082474,14.9807,326.0677,124.4283,235.6820,0,U,41167,999,57986,.11853903E-3,.3643E-4,0
GAOFEN-4,2015-083A,2026-06-08T14:20:42.251136,1.00273550,.00041656,0.3341,83.8441,111.8448,22.1741,0,U,41194,999,3844,0,-.319E-5,0
JASON-3,2016-002A,2026-06-09T11:14:51.816192,12.87627814,.0008588,66.0393,142.0625,273.0879,86.9157,0,U,41240,999,48625,.73604E-4,-.44E-6,0
SENTINEL-3A,2016-011A,2026-06-09T12:03:16.903008,14.26737872,.0001353,98.6249,227.9960,104.3212,255.8119,0,U,41335,999,53696,.53072E-4,.85E-6,0
ZIYUAN 3-02 (ZY 3-02),2016-033A,2026-06-09T11:52:23.903904,15.21406574,.0011552,97.3835,236.4161,320.4908,39.5484,0,U,41556,999,55681,.2142E-3,.4745E-4,0
CARTOSAT-2C,2016-040A,2026-06-09T11:40:08.454144,15.19257635,.0009961,97.4489,220.5698,155.2044,204.9671,0,U,41599,999,55254,.17085E-3,.3537E-4,0
SKYSAT-C1,2016-040C,2026-06-09T11:09:42.867072,15.36169689,.0004069,96.9572,192.6041,73.0207,287.1483,0,U,41601,999,55668,.24003E-3,.8387E-4,0
LAPAN-A3,2016-040E,2026-06-09T11:44:30.233184,15.33055399,.0011694,97.1487,156.8882,50.7737,309.4542,0,U,41603,999,55363,.95816E-4,.299E-4,0
GAOFEN-3,2016-049A,2026-06-09T12:31:20.845056,14.42215243,.0001242,98.4016,168.4237,98.8070,261.3260,0,U,41727,999,51754,.90187E-4,.254E-5,0
